[{"OBJECT_NAME":"YAOGAN-20 01B","OBJECT_ID":"2014-047B","EPOCH":"2026-03-09T23:45:00.499968","MEAN_MOTION":13.45431441,"ECCENTRICITY":0.03813833,"INCLINATION":63.3786,"RA_OF_ASC_NODE":275.7687,"ARG_OF_PERICENTER":14.1688,"MEAN_ANOMALY":346.9686,"EPHEMERIS_TYPE":0,"CLASSIFICATION_TYPE":"U","NORAD_CAT_ID":40110,"ELEMENT_SET_NO":999,"REV_AT_EPOCH":56893,"BSTAR":0.00011613122,"MEAN_MOTION_DOT":1.6e-7,"MEAN_MOTION_DDOT":0},{"OBJECT_NAME":"FENGYUN 1C DEB","OBJECT_ID":"1999-025ETJ","EPOCH":"2026-03-08T00:37:35.134176","MEAN_MOTION":14.20531738,"ECCENTRICITY":0.00579984,"INCLINATION":99.1558,"RA_OF_ASC_NODE":90.2185,"ARG_OF_PERICENTER":112.1631,"MEAN_ANOMALY":277.7266,"EPHEMERIS_TYPE":0,"CLASSIFICATION_TYPE":"U","NORAD_CAT_ID":38717,"ELEMENT_SET_NO":999,"REV_AT_EPOCH":59637,"BSTAR":0.0017005235,"MEAN_MOTION_DOT":3.671e-5,"MEAN_MOTION_DDOT":0}]
